     2.100          NAVIGATION                              RINEX VERSION / TYPE
fic2rin                                 09/02/2014 00:20:21 PGM / RUN BY / DATE
                                                            END OF HEADER
17 14  9  1 18  0  0.0 -.120801851153D-03 -.284217094304D-11  .000000000000D+00
     .890000000000D+02 -.243437500000D+02  .442768443083D-08 -.269078697927D+01
    -.121258199215D-05  .943876802921D-02  .848062336445D-05  .515364031601D+04
     .151200000000D+06  .229105353355D-06  .182526132263D+01 -.968575477600D-07
     .969412159565D+00  .218500000000D+03 -.209787324962D+01 -.783354058412D-08
     .388587614805D-09  .100000000000D+01  .180800000000D+04  .000000000000D+00
     .240000000000D+01  .000000000000D+00 -.102445483208D-07  .890000000000D+02
     .144006000000D+06  .400000000000D+01
18 14  9  1 18  0  0.0  .341971870512D-03  .250111042988D-11  .000000000000D+00
     .420000000000D+02  .525000000000D+01  .535236580466D-08 -.117577930699D+01
     .311061739922D-06  .154959229985D-01  .899843871593D-05  .515372565651D+04
     .151200000000D+06  .160187482834D-06 -.241920920808D+01  .432133674622D-06
     .925690402378D+00  .188937500000D+03 -.201242040687D+01 -.846213819631D-08
    -.396802242692D-09  .100000000000D+01  .180800000000D+04  .000000000000D+00
     .240000000000D+01  .000000000000D+00 -.107102096081D-07  .420000000000D+02
     .144006000000D+06  .400000000000D+01
19 14  9  1 18  0  0.0 -.476547051221D-03 -.193267624127D-11  .000000000000D+00
     .290000000000D+02 -.168750000000D+02  .450875923649D-08  .273929073624D+01
    -.862404704094D-06  .105821370380D-01  .906921923161D-05  .515364777946D+04
     .151200000000D+06 -.126659870148D-06  .187578411867D+01 -.856816768646D-07
     .966533103138D+00  .207750000000D+03  .494192110205D+00 -.783032616451D-08
     .419660337680D-09  .100000000000D+01  .180800000000D+04  .000000000000D+00
     .240000000000D+01  .000000000000D+00 -.149011611938D-07  .290000000000D+02
     .144006000000D+06  .400000000000D+01
21 14  9  1 18  0  0.0 -.381640158594D-03 -.216004991671D-11  .000000000000D+00
     .710000000000D+02 -.156562500000D+02  .568273670879D-08 -.231009936640D+00
    -.691041350365D-06  .216079606907D-01  .640936195850D-05  .515369920731D+04
     .151200000000D+06 -.154599547386D-06  .281971659455D+01  .186264514923D-06
     .933052742420D+00  .243125000000D+03 -.199807996954D+01 -.903216194008D-08
    -.450018745087D-10  .100000000000D+01  .180800000000D+04  .000000000000D+00
     .240000000000D+01  .000000000000D+00 -.111758708954D-07  .710000000000D+02
     .144006000000D+06  .400000000000D+01
22 14  9  1 18  0  0.0  .264027621597D-03  .341060513165D-11  .000000000000D+00
     .410000000000D+02  .734375000000D+01  .530736393015D-08 -.173028418098D+01
     .266358256340D-06  .737176544499D-02  .943057239056D-05  .515372408676D+04
     .151200000000D+06  .203028321266D-06 -.241751341831D+01  .186264514923D-07
     .923477220910D+00  .178937500000D+03 -.204745673604D+01 -.824855787126D-08
    -.343585740297D-09  .100000000000D+01  .180800000000D+04  .000000000000D+00
     .240000000000D+01  .000000000000D+00 -.172294676304D-07  .410000000000D+02
     .144006000000D+06  .400000000000D+01
23 14  9  1 18  0  0.0 -.490550883114D-04 -.295585778076D-11  .000000000000D+00
     .960000000000D+02  .918750000000D+02  .466412285087D-08  .232809272481D+01
     .458769500256D-05  .969394994900D-02  .882893800735D-05  .515374435616D+04
     .151200000000D+06 -.163912773132D-06 -.135129680662D+01 -.447034835815D-07
     .950532163080D+00  .204781250000D+03 -.273434682800D+01 -.811819529828D-08
    -.225009372544D-10  .100000000000D+01  .180800000000D+04  .000000000000D+00
     .340000000000D+01  .000000000000D+00 -.200234353542D-07  .960000000000D+02
     .144006000000D+06  .400000000000D+01
24 14  9  1 18  0  0.0 -.344906002283D-04 -.568434188608D-12  .000000000000D+00
     .560000000000D+02  .129687500000D+02  .466983737461D-08  .164828997794D+01
     .553205609322D-06  .217457138933D-02  .405684113503D-05  .515371578026D+04
     .151200000000D+06  .260770320892D-07 -.324296437985D+00  .521540641785D-07
     .956185740197D+00  .296562500000D+03  .267458552288D+00 -.838213486385D-08
    -.250010413937D-10  .100000000000D+01  .180800000000D+04  .000000000000D+00
     .240000000000D+01  .000000000000D+00  .279396772385D-08  .560000000000D+02
     .144006000000D+06  .400000000000D+01
25 14  9  1 18  0  0.0  .224951654673D-04 -.795807864051D-12  .000000000000D+00
     .800000000000D+02 -.491250000000D+02  .414874424042D-08 -.409439384942D+00
    -.248476862907D-05  .366853561718D-02  .758469104767D-05  .515356496239D+04
     .151200000000D+06  .130385160446D-07  .732353181015D+00  .391155481339D-07
     .976950131700D+00  .245437500000D+03  .729855440037D+00 -.800140471919D-08
     .260725145963D-10  .100000000000D+01  .180800000000D+04  .000000000000D+00
     .240000000000D+01  .000000000000D+00  .558793544769D-08  .800000000000D+02
     .144006000000D+06  .400000000000D+01
26 14  9  1 18  0  0.0 -.401814468205D-04 -.133013600134D-10  .000000000000D+00
     .400000000000D+02  .674375000000D+02  .403445376548D-08  .229913848634D+01
     .329315662384D-05  .212177260546D-01  .789575278759D-05  .515368861198D+04
     .151200000000D+06  .253319740295D-06 -.126073021962D+01 -.270083546638D-06
     .973696704296D+00  .228281250000D+03  .129176009161D+01 -.759674500635D-08
     .532165023952D-10  .100000000000D+01  .180800000000D+04  .000000000000D+00
     .240000000000D+01  .000000000000D+00 -.605359673500D-08  .400000000000D+02
     .144006000000D+06  .400000000000D+01
27 14  9  1 18  0  0.0  .109761022031D-04  .306954461848D-11  .000000000000D+00
     .830000000000D+02 -.137812500000D+02  .453804617070D-08 -.286444286297D+01
    -.737607479095D-06  .145702809095D-02  .905618071556D-05  .515367920494D+04
     .151200000000D+06 -.558793544769D-07  .177910222250D+01  .186264514923D-08
     .964191326782D+00  .208468750000D+03  .337929033632D+00 -.800426198107D-08
     .398945189097D-09  .100000000000D+01  .180800000000D+04  .000000000000D+00
     .240000000000D+01  .000000000000D+00  .186264514923D-08  .830000000000D+02
     .144006000000D+06  .400000000000D+01
28 14  9  1 18  0  0.0  .381332822144D-03  .272848410532D-11  .000000000000D+00
     .184000000000D+03 -.642500000000D+02  .378551482474D-08 -.190154900847D+01
    -.304728746414D-05  .192482363200D-01  .738352537155D-05  .515368141937D+04
     .151200000000D+06  .374391674995D-06  .800146871912D+00  .199303030968D-06
     .987387629412D+00  .243937500000D+03 -.170998297860D+01 -.757781564644D-08
     .525021869268D-10  .100000000000D+01  .180800000000D+04  .000000000000D+00
     .340000000000D+01  .000000000000D+00 -.107102096081D-07  .184000000000D+03
     .144006000000D+06  .400000000000D+01
29 14  9  1 18  0  0.0  .557555817068D-03  .238742359215D-11  .000000000000D+00
     .990000000000D+02 -.971875000000D+01  .452983154281D-08 -.558357560919D-01
    -.480562448502D-06  .120532151777D-02  .828690826893D-05  .515364723206D+04
     .151200000000D+06 -.260770320892D-07  .183440758594D+01 -.372529029846D-08
     .970179490819D+00  .226531250000D+03 -.795003708376D+00 -.804783522464D-08
     .372158359032D-09  .100000000000D+01  .180800000000D+04  .000000000000D+00
     .340000000000D+01  .000000000000D+00 -.977888703346D-08  .990000000000D+02
     .144006000000D+06  .400000000000D+01
30 14  9  1 18  0  0.0 -.565405935049D-04 -.500222085975D-11  .000000000000D+00
     .570000000000D+02  .138437500000D+02  .464840791056D-08  .708180477119D+00
     .717118382454D-06  .101356056985D-02  .381469726562D-05  .515366574478D+04
     .151200000000D+06  .000000000000D+00 -.234933507798D+00  .521540641785D-07
     .958529016044D+00  .303968750000D+03  .305946328715D+01 -.839356391134D-08
     .189293599124D-10  .100000000000D+01  .180800000000D+04  .000000000000D+00
     .240000000000D+01  .000000000000D+00  .325962901115D-08  .570000000000D+02
     .144006000000D+06  .400000000000D+01
31 14  9  1 18  0  0.0  .332163646817D-03 -.341060513165D-12  .000000000000D+00
     .620000000000D+02  .315625000000D+01  .422731894194D-08  .739684261424D+00
     .204890966415D-06  .800958299078D-02  .423192977905D-05  .515361511040D+04
     .151200000000D+06  .132247805595D-06 -.281449839356D+00 -.188127160072D-06
     .977819469306D+00  .303656250000D+03 -.633215526688D+00 -.823105714228D-08
     .750031241812D-11  .100000000000D+01  .180800000000D+04  .000000000000D+00
     .240000000000D+01  .000000000000D+00 -.130385160446D-07  .620000000000D+02
     .144006000000D+06  .400000000000D+01
32 14  9  1 18  0  0.0 -.349767506123D-03  .852651282912D-11  .000000000000D+00
     .460000000000D+02  .179062500000D+02  .479019953104D-08  .129122915621D+01
     .100210309029D-05  .114219775423D-01  .955723226070D-05  .515366491699D+04
     .151200000000D+06  .726431608200D-07 -.232299031671D+01  .186264514923D-06
     .947541186105D+00  .185875000000D+03 -.101383858245D+00 -.807712215884D-08
    -.494306304127D-09  .100000000000D+01  .180800000000D+04  .000000000000D+00
     .240000000000D+01  .000000000000D+00 -.325962901115D-08  .460000000000D+02
     .144006000000D+06  .400000000000D+01
23 14  9  1 17 59 44.0 -.490541569889D-04 -.295585778076D-11  .000000000000D+00
     .160000000000D+02  .918750000000D+02  .466412285087D-08  .232575902083D+01
     .458769500256D-05  .969394971617D-02  .882893800735D-05  .515374434853D+04
     .151184000000D+06 -.163912773132D-06 -.135129668373D+01 -.447034835815D-07
     .950532163080D+00  .204781250000D+03 -.273434669048D+01 -.811819529828D-08
    -.225009372544D-10  .100000000000D+01  .180800000000D+04  .000000000000D+00
     .240000000000D+01  .000000000000D+00 -.200234353542D-07  .160000000000D+02
     .149346000000D+06  .400000000000D+01
